{"fetched_at":"2026-07-15T17:47:10.720Z","source":"https://celestrak.org/NORAD/elements/gp.php?NAME=GLOBAL&FORMAT=JSON","constellation":"blacksky-gen3","records":[{"OBJECT_NAME":"GLOBAL-31","OBJECT_ID":"2025-033B","EPOCH":"2026-07-15T03:02:10.510656","CLASSIFICATION_TYPE":"U","MEAN_MOTION":15.38310631,"ECCENTRICITY":0.001199,"INCLINATION":58.9961,"RA_OF_ASC_NODE":203.255,"ARG_OF_PERICENTER":56.7643,"MEAN_ANOMALY":303.458,"EPHEMERIS_TYPE":0,"NORAD_CAT_ID":63027,"ELEMENT_SET_NO":999,"REV_AT_EPOCH":7862,"BSTAR":0.00014303,"MEAN_MOTION_DOT":0.00005121,"MEAN_MOTION_DDOT":0},{"OBJECT_NAME":"GLOBAL-32","OBJECT_ID":"2025-118B","EPOCH":"2026-07-14T20:53:39.103008","CLASSIFICATION_TYPE":"U","MEAN_MOTION":15.39282316,"ECCENTRICITY":0.0016451,"INCLINATION":58.9935,"RA_OF_ASC_NODE":20.4963,"ARG_OF_PERICENTER":60.9337,"MEAN_ANOMALY":299.3385,"EPHEMERIS_TYPE":0,"NORAD_CAT_ID":64231,"ELEMENT_SET_NO":999,"REV_AT_EPOCH":6250,"BSTAR":0.00020966,"MEAN_MOTION_DOT":0.00007945,"MEAN_MOTION_DDOT":0},{"OBJECT_NAME":"GLOBAL-33","OBJECT_ID":"2025-267A","EPOCH":"2026-07-14T12:39:40.687200","CLASSIFICATION_TYPE":"U","MEAN_MOTION":15.37219316,"ECCENTRICITY":0.00079761,"INCLINATION":42.0184,"RA_OF_ASC_NODE":257.1602,"ARG_OF_PERICENTER":87.6414,"MEAN_ANOMALY":272.5338,"EPHEMERIS_TYPE":0,"NORAD_CAT_ID":66554,"ELEMENT_SET_NO":999,"REV_AT_EPOCH":3625,"BSTAR":0.0001793423,"MEAN_MOTION_DOT":0.00006427,"MEAN_MOTION_DDOT":0},{"OBJECT_NAME":"GLOBAL-34","OBJECT_ID":"2026-043A","EPOCH":"2026-07-15T01:02:55.242816","CLASSIFICATION_TYPE":"U","MEAN_MOTION":15.33104306,"ECCENTRICITY":0.0001711,"INCLINATION":42.0216,"RA_OF_ASC_NODE":59.6488,"ARG_OF_PERICENTER":141.7716,"MEAN_ANOMALY":218.3243,"EPHEMERIS_TYPE":0,"NORAD_CAT_ID":68098,"ELEMENT_SET_NO":999,"REV_AT_EPOCH":2010,"BSTAR":0.00018566,"MEAN_MOTION_DOT":0.00005816,"MEAN_MOTION_DDOT":0}]}
