GLOBAL-31               
1 63027U 25033B   26196.12651054  .00005121  00000+0  14303-3 0  9991
2 63027  58.9961 203.2550 0011990  56.7643 303.4580 15.38310631 78623
GLOBAL-32               
1 64231U 25118B   26195.87059147  .00007945  00000+0  20966-3 0  9997
2 64231  58.9935  20.4963 0016451  60.9337 299.3385 15.39282316 62508
GLOBAL-33               
1 66554U 25267A   26195.52755425  .00006427  00000+0  17934-3 0  9991
2 66554  42.0184 257.1602 0007976  87.6414 272.5338 15.37219316 36253
GLOBAL-34               
1 68098U 26043A   26196.04369494  .00005816  00000+0  18566-3 0  9997
2 68098  42.0216  59.6488 0001711 141.7716 218.3243 15.33104306 20107
